STARLINK-1212           
1 45223U 20012AX  25356.38692710  .00005258  00000+0  37191-3 0  9991
2 45223  53.0558 354.3002 0001435  98.6060 261.5092 15.06371296323747
STARLINK-1215           
1 45225U 20012AZ  25356.40895330  .00000893  00000+0  78861-4 0  9999
2 45225  53.0560 353.5443 0001375  90.7086 269.4061 15.06400527323705
STARLINK-1221           
1 45227U 20012BB  25356.18217376  .00016836  00000+0  44092-3 0  9996
2 45227  53.0678 276.0261 0005605 112.3530 247.8068 15.38834614324766
STARLINK-1222           
1 45228U 20012BC  25356.91670139  .01660855  00000+0  36896-1 0  9996
2 45228  53.0572 348.9077 0000817 100.5571  87.7365 15.40248491  5782
STARLINK-1226           
1 45229U 20012BD  25356.40526902  .00001349  00000+0  10940-3 0  9999
2 45229  53.0581 353.5619 0001685  86.8044 273.3138 15.06404310323647
STARLINK-1227           
1 45230U 20012BE  25356.40158243  .00002570  00000+0  19137-3 0  9994
2 45230  53.0570 353.5769 0001420  93.8362 266.2790 15.06402999323760
STARLINK-1246           
1 45235U 20012BK  25356.81441247  .00000517  00000+0  53583-4 0  9996
2 45235  53.0572  31.7230 0001510  95.0593 265.0569 15.06393457323270
STARLINK-1270           
1 45237U 20012BM  25356.91670139  .02052752  00000+0  75758-1 0  9998
2 45237  53.0533 350.7215 0001529 100.4909 355.7824 15.23760953  5735
STARLINK-1279           
1 45360U 20019A   25356.81516235  .00097052  00000+0  21606-2 0  9991
2 45360  53.0486 107.3435 0003515 224.8144 135.2577 15.42850408318759
STARLINK-1301           
1 45361U 20019B   25356.81450264  .00098512  00000+0  19610-2 0  9995
2 45361  53.0487 116.0411 0004357 218.5646 141.5050 15.46136535318640
STARLINK-1306           
1 45362U 20019C   25356.91670139  .00347781  58363-4  91620-3 0  9999
2 45362  53.0367  90.6337 0003462   5.7833 193.9631 15.94272165  6050
STARLINK-1262           
1 45366U 20019G   25356.59693249 -.00000367  00000+0 -57688-5 0  9990
2 45366  53.0546 152.6971 0001312  92.1475 267.9664 15.06399269318119
STARLINK-1273           
1 45367U 20019H   25356.81809500  .00000194  00000+0  31898-4 0  9995
2 45367  53.0539 151.7050 0001316  90.5842 269.5297 15.06402474318140
STARLINK-1276           
1 45368U 20019J   25356.58957764  .00001069  00000+0  90645-4 0  9993
2 45368  53.0541 152.7337 0001245  92.4331 267.6801 15.06408417318118
STARLINK-1277           
1 45369U 20019K   25356.18419029  .00000117  00000+0  26722-4 0  9995
2 45369  53.0542 155.1793 0001431  91.1446 268.9707 15.06397970318045
STARLINK-1281           
1 45370U 20019L   25356.18043127 -.00010272  00000+0 -67079-3 0  9993
2 45370  53.0541 154.5721 0001585 103.7986 256.3180 15.06447758318056
STARLINK-1300           
1 45374U 20019Q   25356.46793541  .00000835  00000+0  74961-4 0  9991
2 45374  53.0538 153.2783 0001449  94.4600 265.6555 15.06393188318098
STARLINK-1302           
1 45375U 20019R   25356.81440963  .00000871  00000+0  77338-4 0  9999
2 45375  53.0554 151.7238 0001341  89.6449 270.4693 15.06398859318146
STARLINK-1304           
1 45376U 20019S   25355.83763708  .00001428  00000+0  11476-3 0  9995
2 45376  53.0559 156.1062 0001462  83.3175 276.7980 15.06399538317992
STARLINK-1305           
1 45377U 20019T   25356.91670139  .00125632  00000+0  31714-2 0  9991
2 45377  53.0499 138.4223 0006137 181.7446 230.2913 15.38901531  5819
STARLINK-1319           
1 45379U 20019V   25356.91670139  .00117791  00000+0  24971-2 0  9997
2 45379  53.0502 139.0501 0004861 197.3703 284.3517 15.44194878  5829
STARLINK-1266           
1 45383U 20019Z   25356.58770833  .00001137  00000+0  95162-4 0  9995
2 45383  53.0543 132.7446 0001213  89.4194 270.6934 15.06408033318388
STARLINK-1267           
1 45384U 20019AA  25356.91670139  .01955489  00000+0  68634-1 0  9991
2 45384  53.0544 131.2037 0001565  88.7746 349.3028 15.25624332  5783
STARLINK-1272           
1 45386U 20019AC  25356.80897513  .00096170  00000+0  21742-2 0  9990
2 45386  53.0509 117.9916 0005062 213.9819 146.0862 15.42388778318619
STARLINK-1274           
1 45387U 20019AD  25356.51136709  .00103374  00000+0  28822-2 0  9993
2 45387  53.0349 108.7992 0001389  34.5789 325.5303 15.35954074318710
STARLINK-1280           
1 45388U 20019AE  25356.91670139  .00110454  00000+0  20526-2 0  9998
2 45388  53.0494 134.7597 0006006 175.4823  48.0797 15.48059585  5845
STARLINK-1283           
1 45389U 20019AF  25355.66837521  .00094745  00000+0  23197-2 0  9991
2 45389  53.0518 123.3137 0000971  14.2154 345.8876 15.40002763318446
STARLINK-1284           
1 45390U 20019AG  25356.52506145 -.00000075  00000+0  13857-4 0  9992
2 45390  53.0546 133.0276 0001254  91.9637 268.1496 15.06396697318375
STARLINK-1297           
1 45395U 20019AM  25356.09748788 -.00005462  00000+0 -34788-3 0  9991
2 45395  53.0551 134.9438 0001200  99.7162 260.3963 15.06421269317495
STARLINK-1307           
1 45397U 20019AP  25356.09012381  .00001380  00000+0  11152-3 0  9999
2 45397  53.0542 134.9760 0001289  86.1337 273.9800 15.06395558318139
STARLINK-1255           
1 45399U 20019AR  25356.52125609  .00017629  00000+0  44908-3 0  9995
2 45399  53.0477 110.3526 0001422  64.2337 295.8813 15.39659345318503
STARLINK-1260           
1 45404U 20019AW  25356.62182080 -.00000710  00000+0 -28801-4 0  9999
2 45404  53.0576 122.5863 0001414  87.2383 272.8768 15.06395904318243
STARLINK-1263           
1 45405U 20019AX  25356.54072825  .00000715  00000+0  66913-4 0  9995
2 45405  53.0545 122.9543 0001340  90.9836 269.1306 15.06397863318233
STARLINK-1265           
1 45406U 20019AY  25356.54810877  .00001163  00000+0  96970-4 0  9997
2 45406  53.0552 122.9213 0001169  84.2740 275.8383 15.06402293318238
STARLINK-1278           
1 45408U 20019BA  25356.91670139  .00117239  00000+0  27536-2 0  9997
2 45408  53.0500 137.7829 0006380 174.9819 302.7160 15.41132064  5763
STARLINK-1296           
1 45412U 20019BE  25356.08736146  .00000442  00000+0  48589-4 0  9991
2 45412  53.0547 124.9864 0001225  91.5311 268.5818 15.06395853318168
STARLINK-1298           
1 45413U 20019BF  25356.91670139  .00102959  00000+0  10695-2 0  9994
2 45413  53.0425  78.2997 0003909  80.1697 181.4594 15.63834759  5987
STARLINK-1309           
1 45414U 20019BG  25356.50018241  .00000574  00000+0  57423-4 0  9992
2 45414  53.0551 123.1366 0001384  88.0572 272.0575 15.06397276318216
STARLINK-1316           
1 45415U 20019BH  25356.06155833 -.00003824  00000+0 -23787-3 0  9991
2 45415  53.0554 125.1048 0001226  94.9811 265.1318 15.06412960318188
